{"type":"FeatureCollection","features":[{"type":"Feature","properties":{"scalerank":0,"featurecla":"Coastline"},"geometry":{"type":"LineString","coordinates":[[-3.988476562499983,57.58125],[-3.8681640625,57.600341796875],[-3.628222656249989,57.662255859375],[-3.402783203124983,57.708251953125],[-3.294531249999977,57.71015625],[-3.083935546874983,57.673486328125],[-3.036035156249994,57.672314453125],[-2.946679687499994,57.689257812499996],[-2.856298828124977,57.69228515625],[-2.244140625,57.680859375],[-2.074072265624977,57.702392578125],[-1.961523437499977,57.67666015625],[-1.867382812499983,57.612353515624996],[-1.777929687499977,57.49375],[-1.780664062499994,57.4740234375],[-1.834716796875,57.419970703124996],[-1.934472656249994,57.352197265625],[-2.020312499999989,57.25888671875],[-2.045507812499977,57.208544921874996],[-2.062353515624977,57.153466796875],[-2.089550781249983,57.1025390625],[-2.26025390625,56.863330078124996],[-2.426660156249994,56.730712890625],[-2.5009765625,56.636572265625],[-2.592675781249994,56.561572265624996],[-2.680957031249989,56.514404296875],[-2.775195312499989,56.482958984374996],[-3.047412109374989,56.449365234375],[-3.123583984374989,56.42529296875],[-3.214453124999977,56.383935546875],[-3.309960937499994,56.3634765625],[-3.197998046875,56.366064453125],[-3.087011718749977,56.3890625],[-2.88515625,56.397509765624996],[-2.65273437499999,56.31826171875],[-2.674267578124983,56.25341796875],[-2.767578125,56.2021484375],[-2.979785156249989,56.194091796875],[-3.17822265625,56.080126953124996],[-3.267773437499983,56.045068359375],[-3.362255859374983,56.027636718749996],[-3.480419921874983,56.0328125],[-3.695117187499989,56.063330078125],[-3.7890625,56.09521484375],[-3.704150390624989,56.0431640625],[-3.6078125,56.016015625],[-3.048730468749994,55.951953125],[-3.015087890624983,55.95859375],[-2.836865234374983,56.02626953125],[-2.599316406249983,56.027294921875],[-2.147070312499977,55.902978515625],[-2.016845703125,55.807958984375],[-1.830273437499983,55.671728515625],[-1.728759765625,55.6185546875],[-1.655371093749977,55.570361328124996],[-1.610156249999989,55.498095703124996],[-1.522558593749977,55.259521484375],[-1.422656249999989,55.026416015624996],[-1.291748046875,54.773876953125],[-1.232421875,54.7037109375],[-1.154394531249977,54.6544921875],[-0.759326171874989,54.54140625],[-0.67138671875,54.50390625],[-0.518115234374989,54.3951171875],[-0.370361328125,54.27919921875],[-0.232861328124983,54.19013671875],[-0.084375,54.11806640625],[-0.156298828124989,54.080615234374996],[-0.20556640625,54.021728515625],[-0.16875,53.941650390625],[-0.108251953124977,53.865185546875],[0.010546875000017,53.742822265625],[0.115332031250006,53.60927734375],[0.076708984375017,53.629443359374996],[0.036083984375011,53.64052734375],[-0.019433593749994,53.63720703125],[-0.07373046875,53.64365234375],[-0.173828125,53.68544921875],[-0.27001953125,53.736767578125],[-0.461376953124983,53.716162109375],[-0.567675781249989,53.725390625],[-0.659912109375,53.7240234375],[-0.485058593749983,53.694384765624996],[-0.293701171875,53.692333984375],[0.128320312500023,53.46826171875],[0.27099609375,53.335498046874996],[0.355761718750017,53.159960937499996],[0.298046875000011,53.081103515624996],[0.208203125000011,53.030029296875],[0.124414062500023,52.97158203125],[0.0458984375,52.905615234375],[0.27978515625,52.80869140625],[0.330175781250006,52.81162109375],[0.381933593750006,52.8251953125],[0.431640625,52.858154296875],[0.515527343750023,52.93837890625],[0.558789062500011,52.966943359375],[0.704492187500023,52.97724609375],[0.826757812500006,52.97109375],[0.948535156250017,52.953369140625],[1.055566406250023,52.958984375],[1.271289062500017,52.924560546875],[1.382128906250017,52.893505859375],[1.65673828125,52.753710937499996],[1.716113281250017,52.67724609375],[1.743359375000011,52.578515625],[1.74658203125,52.468994140625],[1.700390625000011,52.368896484375],[1.647363281250023,52.278515625],[1.614648437500023,52.16181640625],[1.59140625,52.119775390625],[1.558984375000023,52.086865234375],[1.413476562500023,51.994775390625],[1.316796875000023,51.95693359375],[1.275976562500006,51.97353515625],[1.232421875,51.971240234374996],[1.227832031250017,51.94912109375],[1.273828125000023,51.902099609375],[1.2744140625,51.845361328125],[1.1884765625,51.803369140625],[1.101171875,51.785449218749996],[0.955078125,51.8078125],[0.752246093750017,51.72958984375],[0.898046875,51.689404296875],[0.927441406250011,51.646630859375],[0.890917968750017,51.571435546874994],[0.799218750000023,51.537890625],[0.697558593750017,51.523046875],[0.593457031250011,51.519482421875],[0.507226562500023,51.50107421875],[0.424511718750011,51.465625],[0.5283203125,51.48447265625],[0.600292968750011,51.46796875],[0.6455078125,51.4046875],[0.6865234375,51.386572265625],[0.889355468750011,51.359521484374994],[1.014941406250017,51.359716796875],[1.257128906250017,51.37509765625],[1.373437500000023,51.37470703125],[1.414941406250023,51.36328125],[1.415625,51.310839843749996],[1.397558593750006,51.18203125],[1.365527343750017,51.15546875],[1.04443359375,51.04726562499999],[0.978613281250006,50.9716796875],[0.960156250000011,50.92587890625],[0.772363281250023,50.93398437499999],[0.684375,50.885546875],[0.532324218750006,50.853417968749994],[0.414746093750011,50.819189453125],[0.299707031250023,50.7759765625],[0.205078125,50.763037109375],[-0.203906249999989,50.814355468749994],[-0.450781249999977,50.81015625],[-0.785253906249977,50.765429687499996],[-0.871386718749989,50.772802734375],[-1.000585937499977,50.815625],[-1.132861328124989,50.844580078125],[-1.285058593749994,50.857324218749994],[-1.416455078124983,50.896875],[-1.33447265625,50.82080078125],[-1.516748046874994,50.747460937499994],[-1.600830078125,50.732861328125],[-1.68789062499999,50.73515625],[-1.866015624999989,50.71523437499999],[-2.031054687499989,50.725390625],[-2.00625,50.673242187499994],[-1.962060546874994,50.627783203125],[-1.997900390624977,50.6080078125],[-2.035839843749983,50.603076171874996],[-2.350146484374989,50.63740234375],[-2.394677734374994,50.630908203124996],[-2.433447265624977,50.59921875],[-2.547753906249994,50.61630859375],[-2.658837890624994,50.669726562499996],[-2.776953124999977,50.70556640625],[-2.90087890625,50.722412109375],[-2.999414062499994,50.716601562499996],[-3.404589843749989,50.632421875],[-3.485449218749977,50.54794921875],[-3.52587890625,50.428173828125],[-3.584375,50.321826171874996],[-3.679785156249977,50.23994140625],[-3.79335937499999,50.229248046875],[-3.900195312499989,50.2859375],[-4.103417968749994,50.348535156249994],[-4.172558593749983,50.3908203125],[-4.194580078125,50.393310546875],[-4.21728515625,50.378173828125],[-4.296972656249977,50.35908203125],[-4.379492187499977,50.358203125],[-4.506689453124977,50.341357421874996],[-4.727978515624983,50.290478515625],[-4.8173828125,50.25595703125],[-5.009521484375,50.1607421875],[-5.048632812499989,50.134375],[-5.118505859374977,50.038330078125],[-5.225244140624994,50.021386718749994],[-5.322851562499977,50.082958984375],[-5.43398437499999,50.104443359375],[-5.551220703124983,50.083398437499994],[-5.622119140624989,50.050683593749994],[-5.655175781249994,50.07724609375],[-5.65625,50.131884765624996],[-5.570654296874977,50.19697265625],[-5.34228515625,50.246142578124996],[-5.141796874999983,50.37373046875],[-5.04345703125,50.451513671875],[-5.004443359374989,50.495263671874994],[-4.956396484374977,50.52314453125],[-4.8935546875,50.53369140625],[-4.861279296874983,50.58203125],[-4.582910156249994,50.7763671875],[-4.559960937499994,50.820947265624994],[-4.546093749999983,50.900683593749996],[-4.523095703124994,50.977441406249994],[-4.296484374999977,51.027148437499996],[-4.188183593749983,51.188525390624996],[-4.158398437499983,51.201318359374994],[-3.842333984374989,51.230908203125],[-3.60791015625,51.228564453124996],[-3.375097656249977,51.19697265625],[-3.255761718749994,51.194140625],[-3.135986328125,51.205029296875],[-3.042041015624989,51.248583984374996],[-2.88125,51.405664062499994],[-2.790820312499989,51.4748046875],[-2.687207031249983,51.537255859374994],[-2.590283203124983,51.60859375],[-2.433056640624983,51.74072265625],[-2.539355468749989,51.69521484375],[-2.667675781249983,51.622998046875],[-2.742138671874983,51.581103515624996],[-2.978515625,51.538867187499996],[-3.080371093749989,51.49580078125],[-3.2587890625,51.398486328124996],[-3.293115234374994,51.390429687499996],[-3.562353515624977,51.413818359375],[-3.7626953125,51.539941406249994],[-3.890771484374994,51.591650390625],[-3.943652343749989,51.597509765625],[-3.998339843749989,51.58212890625],[-4.115283203124989,51.56640625],[-4.234570312499983,51.569091796875],[-4.173681640624977,51.62734375],[-4.091015624999983,51.659912109375],[-4.276171874999989,51.68251953125],[-4.32763671875,51.700244140624996],[-4.386279296874989,51.741064453125],[-4.531494140625,51.748046875],[-4.600781249999983,51.737646484375],[-4.717626953124977,51.68369140625],[-4.902294921874983,51.626269531249996],[-5.124755859375,51.705859375],[-5.16835937499999,51.74072265625],[-5.167236328125,51.808056640625],[-5.200585937499994,51.861376953124996],[-5.262304687499977,51.880175781249996],[-5.183349609375,51.949658203125],[-5.088085937499983,51.995898437499996],[-4.878515624999977,52.041845703125],[-4.561132812499977,52.15087890625],[-4.383154296874977,52.197314453124996],[-4.217724609374983,52.27744140625],[-4.149365234374983,52.32626953125],[-4.099755859374994,52.393115234374996],[-4.050537109375,52.475146484374996],[-3.980322265624977,52.541748046875],[-4.048437499999977,52.5576171875],[-4.078906249999989,52.607861328125],[-4.07070312499999,52.658837890625],[-4.039257812499983,52.704052734375],[-4.067431640624989,52.7607421875],[-4.117529296874977,52.82001953125],[-4.11474609375,52.866162109375],[-4.101464843749994,52.915478515625],[-4.229150390624994,52.912841796875],[-4.3564453125,52.897412109375],[-4.471826171874994,52.862451171875],[-4.583691406249983,52.81494140625],[-4.683056640624983,52.80615234375],[-4.681445312499989,52.844140625],[-4.638330078124994,52.89111328125],[-4.525683593749989,52.958203125],[-4.405078124999989,53.013818359375],[-4.362207031249994,53.0560546875],[-4.328417968749989,53.105126953125],[-4.2685546875,53.14453125],[-4.111035156249983,53.2189453125],[-3.809277343749983,53.302685546875],[-3.764208984374989,53.3076171875],[-3.645898437499994,53.297900390624996],[-3.529589843749989,53.310546875],[-3.427734375,53.340673828125],[-3.326171875,53.34716796875],[-3.097558593749994,53.260302734374996],[-3.165576171874989,53.394677734375],[-3.064746093749989,53.42685546875],[-2.918554687499977,53.30537109375],[-2.864160156249994,53.292578125],[-2.74951171875,53.310205078125],[-2.79375,53.330712890625],[-2.845410156249983,53.33193359375],[-2.9130859375,53.350244140625],[-2.969970703125,53.389208984374996],[-3.064599609374994,53.512841796875],[-3.059472656249994,53.586230468749996],[-2.995703124999977,53.662548828125],[-2.925097656249989,53.732763671875],[-2.984326171874983,53.746728515625],[-3.031787109374989,53.773583984375],[-3.045361328124983,53.84384765625],[-3.026757812499994,53.905908203125],[-2.899853515624983,53.960693359375],[-2.862402343749977,54.04384765625],[-2.846484374999989,54.135302734374996],[-2.86757812499999,54.17724609375],[-2.993505859374977,54.1705078125],[-3.054736328124989,54.15341796875],[-3.109667968749989,54.126318359375],[-3.165966796874983,54.1279296875],[-3.321533203125,54.2291015625],[-3.410253906249977,54.305615234375],[-3.569384765624989,54.467578125],[-3.592041015625,54.56435546875],[-3.464599609375,54.773095703125],[-3.267919921874977,54.906591796875],[-3.036230468749977,54.953076171875],[-3.0810546875,54.961962890624996],[-3.43408203125,54.96376953125],[-3.550439453124994,54.947412109375],[-3.658300781249977,54.892871093749996],[-3.71923828125,54.876123046875],[-3.783251953124989,54.869921875],[-3.841601562499989,54.8427734375],[-3.898583984374994,54.805078125],[-3.957910156249994,54.78095703125],[-4.075781249999977,54.78720703125],[-4.132958984374994,54.779248046875],[-4.174023437499983,54.801074218749996],[-4.208398437499994,54.837158203125],[-4.25341796875,54.84677734375],[-4.303662109374983,54.835693359375],[-4.409912109375,54.787060546875],[-4.517480468749994,54.758349609374996],[-4.647558593749977,54.789013671875],[-4.818066406249983,54.846142578125],[-4.851708984374994,54.82529296875],[-4.889501953124977,54.772265625],[-4.911230468749977,54.689453125],[-5.032324218749977,54.761376953125],[-5.135498046875,54.85751953125],[-5.170117187499983,54.917919921875],[-5.172705078124977,54.985888671874996],[-5.11669921875,55.012255859374996],[-5.055859374999983,54.988134765625],[-4.965185546874977,55.149462890624996],[-4.784814453124994,55.359423828124996],[-4.721142578124983,55.42099609375],[-4.6767578125,55.501318359375],[-4.684375,55.55390625],[-4.724169921874989,55.598291015625],[-4.891845703125,55.69912109375],[-4.8896484375,55.781201171875],[-4.871679687499977,55.87392578125],[-4.826074218749994,55.929541015625],[-4.806835937499983,55.94013671875],[-4.584082031249977,55.938671875],[-4.670947265624989,55.9673828125],[-4.844091796874977,56.051171875],[-4.841015624999983,56.080859375],[-4.80029296875,56.158349609375],[-4.819140624999989,56.15048828125],[-4.85625,56.114697265625],[-4.927099609374977,56.028076171875],[-4.970361328124994,56.007861328124996],[-5.092822265624989,55.9873046875],[-5.114990234375,55.944628906249996],[-5.134667968749994,55.93349609375],[-5.195849609374989,55.928662109375],[-5.214599609375,55.8888671875],[-5.228222656249983,55.886328125],[-5.24560546875,55.929248046874996],[-5.247314453125,56.000390625],[-5.222949218749989,56.0658203125],[-5.176416015624994,56.116992187499996],[-4.996972656249994,56.233349609375],[-5.084326171874977,56.1974609375],[-5.282324218749977,56.08994140625],[-5.383447265624994,56.01923828125],[-5.410449218749989,55.995361328125],[-5.418896484374983,55.975244140625],[-5.418310546874977,55.95205078125],[-5.372900390624977,55.827685546874996],[-5.385839843749977,55.7701171875],[-5.556445312499989,55.389599609375],[-5.588769531249994,55.351416015625],[-5.618457031249989,55.3314453125],[-5.646533203124989,55.32685546875],[-5.730664062499983,55.334130859375],[-5.768212890624994,55.362646484375],[-5.767871093749989,55.394970703125],[-5.752099609374994,55.44345703125],[-5.681347656249983,55.623974609375],[-5.650634765625,55.674121093749996],[-5.605029296874989,55.720751953124996],[-5.504492187499977,55.802392578125],[-5.506933593749977,55.80771484375],[-5.573876953124994,55.79169921875],[-5.602392578124977,55.79697265625],[-5.622851562499989,55.813134765625],[-5.609570312499983,56.0552734375],[-5.555273437499977,56.1349609375],[-5.534960937499989,56.250830078125],[-5.487890624999977,56.350048828125],[-5.433398437499989,56.422314453125],[-5.391943359374977,56.514794921875],[-5.329443359374977,56.555908203125],[-5.312695312499983,56.618798828125],[-5.24257812499999,56.686865234375],[-5.188378906249994,56.758056640625],[-5.217578124999989,56.751025390624996],[-5.564208984375,56.565722656249996],[-5.652441406249977,56.531982421875],[-5.772802734374977,56.541015625],[-5.864843749999977,56.561865234375],[-5.936767578125,56.605712890625],[-5.968896484374994,56.689892578125],[-6.057714843749977,56.692138671875],[-6.133691406249994,56.706689453125],[-6.132763671874983,56.718017578125],[-6.034716796874989,56.763916015625],[-5.877636718749983,56.779638671875],[-5.730615234374994,56.853076171874996],[-5.861425781249977,56.902685546875],[-5.850390624999989,56.918408203125],[-5.736279296874983,56.96064453125],[-5.59130859375,57.10234375],[-5.561914062499994,57.232714843749996],[-5.63125,57.2939453125],[-5.656347656249977,57.33408203125],[-5.794921875,57.37880859375],[-5.818066406249983,57.436083984374996],[-5.801953124999983,57.468017578125],[-5.756738281249994,57.49921875],[-5.688623046874994,57.52353515625],[-5.581787109375,57.54677734375],[-5.678759765624989,57.5716796875],[-5.714941406249977,57.60107421875],[-5.742382812499983,57.64365234375],[-5.744921874999989,57.668310546875],[-5.694726562499994,57.77822265625],[-5.665478515624983,57.823535156249996],[-5.608349609374983,57.88134765625],[-5.349023437499994,57.878076171875],[-5.319189453124977,57.903613281249996],[-5.289794921875,57.904589843749996],[-5.1572265625,57.88134765625],[-5.176904296874994,57.906396484375],[-5.39375,58.043603515624994],[-5.413183593749977,58.069726562499994],[-5.351367187499989,58.143701171874994],[-5.346875,58.176660156249994],[-5.35595703125,58.2119140625],[-5.33828125,58.238720703125],[-5.26953125,58.251416015625],[-5.059960937499994,58.250146484374994],[-5.00830078125,58.262646484375],[-5.031835937499977,58.298291015625],[-5.080615234374989,58.345166015625],[-5.090136718749989,58.384521484375],[-5.078710937499977,58.419287109375],[-5.076025390624977,58.4892578125],[-5.066503906249977,58.52021484375],[-5.016748046874994,58.566552734374994],[-4.975634765624989,58.580322265625],[-4.924658203124977,58.58837890625],[-4.809619140624989,58.572900390624994],[-4.765771484374994,58.55419921875],[-4.715429687499977,58.510009765625],[-4.67822265625,58.513574218749994],[-4.534960937499989,58.561572265625],[-4.491894531249983,58.56845703125],[-4.433251953124994,58.512841796874994],[-4.188623046874994,58.5572265625],[-3.859521484374994,58.577099609375],[-3.661816406249983,58.606298828125],[-3.453564453124983,58.61689453125],[-3.259130859374977,58.65],[-3.053076171874977,58.634814453125],[-3.046191406249989,58.61552734375],[-3.056982421874977,58.588769531249994],[-3.109667968749989,58.515478515625],[-3.101123046874989,58.43369140625],[-3.112890624999977,58.40888671875],[-3.136767578124989,58.378320312499994],[-3.212353515624983,58.321240234375],[-3.410986328124977,58.239648437499994],[-3.775,58.052099609375],[-3.990039062499989,57.959033203124996],[-4.019628906249977,57.9142578125],[-4.035595703124983,57.852001953125],[-3.906835937499977,57.839648437499996],[-3.857128906249983,57.8185546875],[-3.887939453125,57.786914062499996],[-4.078417968749989,57.677050781249996],[-4.134521484375,57.577734375],[-3.988476562499983,57.58125]]}}]}
