{"type":"FeatureCollection","features":[{"type":"Feature","properties":{"name":"MetroCentre","osmId":"20966905","routeIds":["relation/2588073"],"routeNames":["Newcastle and Carlisle Railway"]},"geometry":{"type":"Point","coordinates":[-1.664932,54.9588888]}},{"type":"Feature","properties":{"name":"Stanhope","osmId":"33797411","routeIds":[],"routeNames":[]},"geometry":{"type":"Point","coordinates":[-2.0032455,54.7433099]}},{"type":"Feature","properties":{"name":"Widdrington","osmId":"46985645","routeIds":["relation/11817244","relation/11817628"],"routeNames":["NR 01","NR 01"]},"geometry":{"type":"Point","coordinates":[-1.6162192,55.2411444]}},{"type":"Feature","properties":{"name":"Unnamed station","osmId":"59970430","routeIds":[],"routeNames":[]},"geometry":{"type":"Point","coordinates":[-1.4186178,55.0009858]}},{"type":"Feature","properties":{"name":"Monument","osmId":"98154435","routeIds":["relation/172927","relation/8215203","relation/8215232","relation/8215233"],"routeNames":["Green","Green","Yellow","Yellow"]},"geometry":{"type":"Point","coordinates":[-1.6131717,54.9740058]}},{"type":"Feature","properties":{"name":"Bishop Auckland","osmId":"102208484","routeIds":["relation/6428857","relation/6428859"],"routeNames":["NR 03","NR 03"]},"geometry":{"type":"Point","coordinates":[-1.6779534,54.6572212]}},{"type":"Feature","properties":{"name":"Newcastle","osmId":"195885858","routeIds":["relation/2588073","relation/6334044","relation/6336332","relation/6336333","relation/6336334","relation/6357825","relation/6363080","relation/6363081","relation/6363082","relation/6363083","relation/6363085","relation/6396488","relation/6396489","relation/6406403","relation/6406404","relation/6485338","relation/6485339","relation/7551026","relation/9794790","relation/9794791","relation/9802087","relation/9818983","relation/9819721","relation/10919602","relation/10919605","relation/11142456","relation/11142462","relation/11142463","relation/11227361","relation/11233462","relation/11233463","relation/11233528","relation/11233529","relation/11277941","relation/11287754","relation/11287755","relation/11287756","relation/11287757","relation/11287758","relation/11287759","relation/11287760","relation/11287858","relation/11287859","relation/11287860","relation/11816890","relation/11817244","relation/11817628","relation/13074802","relation/13074805","relation/18704841","relation/18737499","relation/20145227","relation/20149503","relation/20149504","relation/20149505","relation/20149506","relation/20149507","relation/20149508","relation/20149509","relation/20149510","relation/20149511","relation/21116357","relation/21116358","relation/21118493","relation/21118494"],"routeNames":["Newcastle and Carlisle Railway","GR C","GR B","GR C","GR D","TP N","GR B","GR C","GR C","GR D","TP N","EDB–PLY","PLY–EDB","GR A","GR HC","NR 04","NR 04","NR 02","NR 04","NR 04","NR 04","NCL–RDG","RDG–NCL","GR C","GR C","GR C","GR C","GR NL","NR 04","NR 02","NR 04","NR 02","NR 02","NR 02","NR 04","NR 02","NR 02","NR 02","NR 04","NR 04","NR 02","NR 04","NR 04","NR 02","NR 01","NR 01","NR 01","NR 02","NR 04","NR 01","NR 01","TP N","Lumo: Edinburgh Waverley => Newcastle","Lumo: Newcastle => London King's Cross (weekday mornings)","Lumo: Newcastle => London King's Cross","Lumo: London King's Cross => Newcastle","Lumo: London King's Cross => Edinburgh Waverley (weekday late nights)","Lumo: London King's Cross => Edinburgh Waverley","Lumo: Edinburgh Waverley => London King's Cross","Lumo: Glasgow Queen Street => London King's Cross","Lumo: London King's Cross => Glasgow Queen Street","PLY–GLC","GLC–PLY","PLY–ABD","ABD–PLY"]},"geometry":{"type":"Point","coordinates":[-1.616046,54.9683364]}},{"type":"Feature","properties":{"name":"Park Lane","osmId":"208521082","routeIds":["relation/172927","relation/8215203"],"routeNames":["Green","Green"]},"geometry":{"type":"Point","coordinates":[-1.3846154,54.902301]}},{"type":"Feature","properties":{"name":"Seaton Delaval","osmId":"210801667","routeIds":["relation/18704841","relation/18737499"],"routeNames":["NR 01","NR 01"]},"geometry":{"type":"Point","coordinates":[-1.5383775,55.0747281]}},{"type":"Feature","properties":{"name":"Wolsingham","osmId":"265975358","routeIds":[],"routeNames":[]},"geometry":{"type":"Point","coordinates":[-1.8843395,54.7262615]}},{"type":"Feature","properties":{"name":"Frosterley","osmId":"265975371","routeIds":[],"routeNames":[]},"geometry":{"type":"Point","coordinates":[-1.9640609,54.7269224]}},{"type":"Feature","properties":{"name":"Causey Arch","osmId":"366985734","routeIds":[],"routeNames":[]},"geometry":{"type":"Point","coordinates":[-1.686687,54.8973288]}},{"type":"Feature","properties":{"name":"Andrews House","osmId":"366985906","routeIds":[],"routeNames":[]},"geometry":{"type":"Point","coordinates":[-1.6757001,54.90848]}},{"type":"Feature","properties":{"name":"Sunniside","osmId":"434073090","routeIds":[],"routeNames":[]},"geometry":{"type":"Point","coordinates":[-1.6753699,54.920206]}},{"type":"Feature","properties":{"name":"Dunston","osmId":"502599476","routeIds":["relation/6485338","relation/7551026","relation/9794791","relation/11233462","relation/11287755","relation/11287758","relation/11287759","relation/11287760","relation/11287860","relation/11816890","relation/11817244","relation/13074802"],"routeNames":["NR 04","NR 02","NR 04","NR 02","NR 02","NR 04","NR 04","NR 02","NR 02","NR 01","NR 01","NR 02"]},"geometry":{"type":"Point","coordinates":[-1.6414408,54.9499976]}},{"type":"Feature","properties":{"name":"East Tanfield","osmId":"583288816","routeIds":[],"routeNames":[]},"geometry":{"type":"Point","coordinates":[-1.6992903,54.8885497]}},{"type":"Feature","properties":{"name":"Museum Halt","osmId":"718891597","routeIds":[],"routeNames":[]},"geometry":{"type":"Point","coordinates":[-1.5495933,55.1897525]}},{"type":"Feature","properties":{"name":"Lakeside Halt","osmId":"718891703","routeIds":[],"routeNames":[]},"geometry":{"type":"Point","coordinates":[-1.5513922,55.1960868]}},{"type":"Feature","properties":{"name":"Bishop Auckland West","osmId":"1001411887","routeIds":[],"routeNames":[]},"geometry":{"type":"Point","coordinates":[-1.6816425,54.6571184]}},{"type":"Feature","properties":{"name":"Fellgate","osmId":"1819791492","routeIds":["relation/172927","relation/8215203"],"routeNames":["Green","Green"]},"geometry":{"type":"Point","coordinates":[-1.4852346,54.957505]}},{"type":"Feature","properties":{"name":"Dipwood Halt","osmId":"3459373487","routeIds":[],"routeNames":[]},"geometry":{"type":"Point","coordinates":[-1.6645975,54.8862872]}},{"type":"Feature","properties":{"name":"Seaham","osmId":"3696748721","routeIds":["relation/7551026","relation/11233462","relation/11233528","relation/11233529","relation/11277941","relation/11287754","relation/11287755","relation/11287756","relation/11287757","relation/11287758","relation/11287760","relation/11287858","relation/11287859","relation/11287860","relation/13074802"],"routeNames":["NR 02","NR 02","NR 02","NR 02","NR 02","NR 04","NR 02","NR 02","NR 02","NR 04","NR 02","NR 04","NR 04","NR 02","NR 02"]},"geometry":{"type":"Point","coordinates":[-1.346378,54.839091]}},{"type":"Feature","properties":{"name":"Seaton Carew","osmId":"3696748722","routeIds":["relation/7551026","relation/11227363","relation/11233461","relation/11233462","relation/11233528","relation/11233529","relation/11277941","relation/11287754","relation/11287755","relation/11287756","relation/11287757","relation/11287758","relation/11287760","relation/11287858","relation/11287859","relation/11287860","relation/13074802"],"routeNames":["NR 02","NR 03","NR 03","NR 02","NR 02","NR 02","NR 02","NR 04","NR 02","NR 02","NR 02","NR 04","NR 02","NR 04","NR 04","NR 02","NR 02"]},"geometry":{"type":"Point","coordinates":[-1.200477,54.6582066]}},{"type":"Feature","properties":{"name":"Corbridge","osmId":"3715250483","routeIds":["relation/2588073","relation/6485338","relation/6485339","relation/7551026","relation/9802087","relation/11233528","relation/11287754","relation/11287755","relation/11287756","relation/11287757","relation/11287758","relation/11287759","relation/11287760","relation/11287858","relation/11287859","relation/11816890","relation/13074802"],"routeNames":["Newcastle and Carlisle Railway","NR 04","NR 04","NR 02","NR 04","NR 02","NR 04","NR 02","NR 02","NR 02","NR 04","NR 04","NR 02","NR 04","NR 04","NR 01","NR 02"]},"geometry":{"type":"Point","coordinates":[-2.0190286,54.9662648]}},{"type":"Feature","properties":{"name":"Prudhoe","osmId":"3715250497","routeIds":["relation/2588073","relation/6485338","relation/6485339","relation/7551026","relation/9794790","relation/9794791","relation/9802087","relation/11233528","relation/11287754","relation/11287755","relation/11287756","relation/11287757","relation/11287758","relation/11287759","relation/11287760","relation/11287858","relation/11287859","relation/11287860","relation/11816890","relation/11817244","relation/11817628","relation/13074802","relation/13074805"],"routeNames":["Newcastle and Carlisle Railway","NR 04","NR 04","NR 02","NR 04","NR 04","NR 04","NR 02","NR 04","NR 02","NR 02","NR 02","NR 04","NR 04","NR 02","NR 04","NR 04","NR 02","NR 01","NR 01","NR 01","NR 02","NR 04"]},"geometry":{"type":"Point","coordinates":[-1.8647367,54.9658707]}},{"type":"Feature","properties":{"name":"Riding Mill","osmId":"3715250499","routeIds":["relation/2588073","relation/6485338","relation/6485339","relation/7551026","relation/9802087","relation/11233528","relation/11287754","relation/11287755","relation/11287756","relation/11287757","relation/11287758","relation/11287759","relation/11287760","relation/11287858","relation/11287859","relation/11816890","relation/13074802"],"routeNames":["Newcastle and Carlisle Railway","NR 04","NR 04","NR 02","NR 04","NR 02","NR 04","NR 02","NR 02","NR 02","NR 04","NR 04","NR 02","NR 04","NR 04","NR 01","NR 02"]},"geometry":{"type":"Point","coordinates":[-1.9719541,54.9489331]}},{"type":"Feature","properties":{"name":"Stocksfield","osmId":"3715250506","routeIds":["relation/2588073","relation/6485338","relation/6485339","relation/7551026","relation/9802087","relation/11233528","relation/11287754","relation/11287755","relation/11287756","relation/11287757","relation/11287758","relation/11287759","relation/11287760","relation/11287858","relation/11287859","relation/11816890","relation/13074802"],"routeNames":["Newcastle and Carlisle Railway","NR 04","NR 04","NR 02","NR 04","NR 02","NR 04","NR 02","NR 02","NR 02","NR 04","NR 04","NR 02","NR 04","NR 04","NR 01","NR 02"]},"geometry":{"type":"Point","coordinates":[-1.9171893,54.946811]}},{"type":"Feature","properties":{"name":"Wylam","osmId":"3715250510","routeIds":["relation/6485338","relation/6485339","relation/7551026","relation/9794791","relation/9802087","relation/11233528","relation/11287754","relation/11287755","relation/11287756","relation/11287757","relation/11287758","relation/11287759","relation/11287760","relation/11287858","relation/11287859","relation/11287860","relation/11816890","relation/13074802"],"routeNames":["NR 04","NR 04","NR 02","NR 04","NR 04","NR 02","NR 04","NR 02","NR 02","NR 02","NR 04","NR 04","NR 02","NR 04","NR 04","NR 02","NR 01","NR 02"]},"geometry":{"type":"Point","coordinates":[-1.8143684,54.9748735]}},{"type":"Feature","properties":{"name":"Manors","osmId":"3814734562","routeIds":["relation/8215232","relation/8215233","relation/11816890","relation/11817244","relation/11817628","relation/18704841","relation/18737499"],"routeNames":["Yellow","Yellow","NR 01","NR 01","NR 01","NR 01","NR 01"]},"geometry":{"type":"Point","coordinates":[-1.6043794,54.9739092]}},{"type":"Feature","properties":{"name":"Fawdon","osmId":"3814734849","routeIds":["relation/172927","relation/8215203"],"routeNames":["Green","Green"]},"geometry":{"type":"Point","coordinates":[-1.6443016,55.0135968]}},{"type":"Feature","properties":{"name":"Wansbeck Road","osmId":"3814734850","routeIds":["relation/172927","relation/8215203"],"routeNames":["Green","Green"]},"geometry":{"type":"Point","coordinates":[-1.6356886,55.0142915]}},{"type":"Feature","properties":{"name":"Chillingham Road","osmId":"4492377623","routeIds":["relation/8215232","relation/8215233"],"routeNames":["Yellow","Yellow"]},"geometry":{"type":"Point","coordinates":[-1.5720557,54.9829136]}},{"type":"Feature","properties":{"name":"Felling","osmId":"4492377625","routeIds":["relation/172927","relation/8215203","relation/8215232","relation/8215233"],"routeNames":["Green","Green","Yellow","Yellow"]},"geometry":{"type":"Point","coordinates":[-1.571771,54.9531464]}},{"type":"Feature","properties":{"name":"Gateshead Stadium","osmId":"4492377626","routeIds":["relation/172927","relation/8215203","relation/8215232","relation/8215233"],"routeNames":["Green","Green","Yellow","Yellow"]},"geometry":{"type":"Point","coordinates":[-1.5881587,54.9576691]}},{"type":"Feature","properties":{"name":"Haymarket","osmId":"4492377627","routeIds":["relation/172927","relation/8215203","relation/8215232","relation/8215233"],"routeNames":["Green","Green","Yellow","Yellow"]},"geometry":{"type":"Point","coordinates":[-1.6139281,54.9775027]}},{"type":"Feature","properties":{"name":"Heworth","osmId":"4492377628","routeIds":["relation/172927","relation/7551026","relation/8215203","relation/8215232","relation/8215233","relation/11233462","relation/11233528","relation/11233529","relation/11277941","relation/11287754","relation/11287755","relation/11287756","relation/11287757","relation/11287758","relation/11287760","relation/11287858","relation/11287859","relation/11287860","relation/13074802"],"routeNames":["Green","NR 02","Green","Yellow","Yellow","NR 02","NR 02","NR 02","NR 02","NR 04","NR 02","NR 02","NR 02","NR 04","NR 02","NR 04","NR 04","NR 02","NR 02"]},"geometry":{"type":"Point","coordinates":[-1.5562892,54.9515142]}},{"type":"Feature","properties":{"name":"Heworth","osmId":"4492377629","routeIds":["relation/172927","relation/7551026","relation/8215203","relation/8215232","relation/8215233","relation/11233462","relation/11233528","relation/11233529","relation/11277941","relation/11287754","relation/11287755","relation/11287756","relation/11287757","relation/11287758","relation/11287760","relation/11287858","relation/11287859","relation/11287860","relation/13074802"],"routeNames":["Green","NR 02","Green","Yellow","Yellow","NR 02","NR 02","NR 02","NR 02","NR 04","NR 02","NR 02","NR 02","NR 04","NR 02","NR 04","NR 04","NR 02","NR 02"]},"geometry":{"type":"Point","coordinates":[-1.5575801,54.9515942]}},{"type":"Feature","properties":{"name":"Ilford Road","osmId":"4492377630","routeIds":["relation/172927","relation/8215203","relation/8215232","relation/8215233"],"routeNames":["Green","Green","Yellow","Yellow"]},"geometry":{"type":"Point","coordinates":[-1.6108627,55.0000112]}},{"type":"Feature","properties":{"name":"Jesmond","osmId":"4492377631","routeIds":["relation/172927","relation/8215203","relation/8215232","relation/8215233"],"routeNames":["Green","Green","Yellow","Yellow"]},"geometry":{"type":"Point","coordinates":[-1.6055777,54.9830644]}},{"type":"Feature","properties":{"name":"Millfield","osmId":"4492377632","routeIds":["relation/172927","relation/8215203"],"routeNames":["Green","Green"]},"geometry":{"type":"Point","coordinates":[-1.4010132,54.9064665]}},{"type":"Feature","properties":{"name":"Central Station","osmId":"4492377634","routeIds":["relation/172927","relation/8215203","relation/8215232","relation/8215233"],"routeNames":["Green","Green","Yellow","Yellow"]},"geometry":{"type":"Point","coordinates":[-1.6167186,54.9693665]}},{"type":"Feature","properties":{"name":"Pallion","osmId":"4492377636","routeIds":["relation/172927","relation/8215203"],"routeNames":["Green","Green"]},"geometry":{"type":"Point","coordinates":[-1.4178547,54.9127413]}},{"type":"Feature","properties":{"name":"Regent Centre","osmId":"4492377638","routeIds":["relation/172927","relation/8215203"],"routeNames":["Green","Green"]},"geometry":{"type":"Point","coordinates":[-1.6216284,55.0119539]}},{"type":"Feature","properties":{"name":"South Gosforth","osmId":"4492377640","routeIds":["relation/172927","relation/8215203","relation/8215232","relation/8215233"],"routeNames":["Green","Green","Yellow","Yellow"]},"geometry":{"type":"Point","coordinates":[-1.6083021,55.0057849]}},{"type":"Feature","properties":{"name":"South Hylton","osmId":"4492377641","routeIds":["relation/172927","relation/8215203"],"routeNames":["Green","Green"]},"geometry":{"type":"Point","coordinates":[-1.4476867,54.9042829]}},{"type":"Feature","properties":{"name":"St Peter's","osmId":"4492377642","routeIds":["relation/172927","relation/8215203"],"routeNames":["Green","Green"]},"geometry":{"type":"Point","coordinates":[-1.3837588,54.9110683]}},{"type":"Feature","properties":{"name":"Stadium of Light","osmId":"4492377643","routeIds":["relation/172927","relation/8215203"],"routeNames":["Green","Green"]},"geometry":{"type":"Point","coordinates":[-1.3829516,54.9181372]}},{"type":"Feature","properties":{"name":"Sunderland","osmId":"4492377645","routeIds":["relation/172927","relation/7551026","relation/8112974","relation/8153775","relation/8215203","relation/11233462","relation/11233528","relation/11233529","relation/11277941","relation/11287754","relation/11287755","relation/11287756","relation/11287757","relation/11287758","relation/11287760","relation/11287858","relation/11287859","relation/11287860","relation/13074802"],"routeNames":["Green","NR 02","GC E","GC E","Green","NR 02","NR 02","NR 02","NR 02","NR 04","NR 02","NR 02","NR 02","NR 04","NR 02","NR 04","NR 04","NR 02","NR 02"]},"geometry":{"type":"Point","coordinates":[-1.3824404,54.9061115]}},{"type":"Feature","properties":{"name":"West Jesmond","osmId":"4492377647","routeIds":["relation/172927","relation/8215203","relation/8215232","relation/8215233"],"routeNames":["Green","Green","Yellow","Yellow"]},"geometry":{"type":"Point","coordinates":[-1.6098034,54.993435]}},{"type":"Feature","properties":{"name":"Pelaw","osmId":"4523832290","routeIds":["relation/172927","relation/8215203","relation/8215232","relation/8215233"],"routeNames":["Green","Green","Yellow","Yellow"]},"geometry":{"type":"Point","coordinates":[-1.542051,54.9526638]}},{"type":"Feature","properties":{"name":"Gateshead","osmId":"4523836161","routeIds":["relation/172927","relation/8215203","relation/8215232","relation/8215233"],"routeNames":["Green","Green","Yellow","Yellow"]},"geometry":{"type":"Point","coordinates":[-1.6044065,54.9617219]}},{"type":"Feature","properties":{"name":"Bank Foot","osmId":"4523848873","routeIds":["relation/172927","relation/8215203"],"routeNames":["Green","Green"]},"geometry":{"type":"Point","coordinates":[-1.6780732,55.0139176]}},{"type":"Feature","properties":{"name":"Callerton Parkway","osmId":"4523848880","routeIds":["relation/172927","relation/8215203"],"routeNames":["Green","Green"]},"geometry":{"type":"Point","coordinates":[-1.7034114,55.0277062]}},{"type":"Feature","properties":{"name":"Airport","osmId":"4523857055","routeIds":["relation/172927","relation/8215203"],"routeNames":["Green","Green"]},"geometry":{"type":"Point","coordinates":[-1.7110967,55.0356373]}},{"type":"Feature","properties":{"name":"Benton","osmId":"4523974774","routeIds":["relation/8215232","relation/8215233"],"routeNames":["Yellow","Yellow"]},"geometry":{"type":"Point","coordinates":[-1.5676297,55.0139029]}},{"type":"Feature","properties":{"name":"East Boldon","osmId":"4523978182","routeIds":["relation/172927","relation/8215203"],"routeNames":["Green","Green"]},"geometry":{"type":"Point","coordinates":[-1.4201545,54.946345]}},{"type":"Feature","properties":{"name":"Four Lane Ends","osmId":"4523982246","routeIds":["relation/8215232","relation/8215233"],"routeNames":["Yellow","Yellow"]},"geometry":{"type":"Point","coordinates":[-1.5785049,55.010164]}},{"type":"Feature","properties":{"name":"Bede","osmId":"4523983417","routeIds":["relation/8215232","relation/8215233"],"routeNames":["Yellow","Yellow"]},"geometry":{"type":"Point","coordinates":[-1.4656764,54.9742849]}},{"type":"Feature","properties":{"name":"Jarrow","osmId":"4523987433","routeIds":["relation/8215232","relation/8215233"],"routeNames":["Yellow","Yellow"]},"geometry":{"type":"Point","coordinates":[-1.493592,54.9795929]}},{"type":"Feature","properties":{"name":"Hebburn","osmId":"4523988187","routeIds":["relation/8215232","relation/8215233"],"routeNames":["Yellow","Yellow"]},"geometry":{"type":"Point","coordinates":[-1.5212236,54.9752922]}},{"type":"Feature","properties":{"name":"Brockley Whins","osmId":"4523999956","routeIds":["relation/172927","relation/8215203"],"routeNames":["Green","Green"]},"geometry":{"type":"Point","coordinates":[-1.460684,54.9595193]}},{"type":"Feature","properties":{"name":"Seaburn","osmId":"4524000784","routeIds":["relation/172927","relation/8215203"],"routeNames":["Green","Green"]},"geometry":{"type":"Point","coordinates":[-1.3865039,54.9295618]}},{"type":"Feature","properties":{"name":"University","osmId":"4524012054","routeIds":["relation/172927","relation/8215203"],"routeNames":["Green","Green"]},"geometry":{"type":"Point","coordinates":[-1.392096,54.9027916]}},{"type":"Feature","properties":{"name":"St James","osmId":"4524022191","routeIds":["relation/8215232","relation/8215233"],"routeNames":["Yellow","Yellow"]},"geometry":{"type":"Point","coordinates":[-1.6210905,54.974347]}},{"type":"Feature","properties":{"name":"Manors","osmId":"4524022602","routeIds":["relation/8215232","relation/8215233","relation/11816890","relation/11817244","relation/11817628","relation/18704841","relation/18737499"],"routeNames":["Yellow","Yellow","NR 01","NR 01","NR 01","NR 01","NR 01"]},"geometry":{"type":"Point","coordinates":[-1.6056318,54.972671]}},{"type":"Feature","properties":{"name":"Walkergate","osmId":"4524023949","routeIds":["relation/8215232","relation/8215233"],"routeNames":["Yellow","Yellow"]},"geometry":{"type":"Point","coordinates":[-1.5594732,54.9853512]}},{"type":"Feature","properties":{"name":"Byker","osmId":"4524026887","routeIds":["relation/8215232","relation/8215233"],"routeNames":["Yellow","Yellow"]},"geometry":{"type":"Point","coordinates":[-1.580344,54.9760388]}},{"type":"Feature","properties":{"name":"Wallsend","osmId":"4524041704","routeIds":["relation/8215232","relation/8215233"],"routeNames":["Yellow","Yellow"]},"geometry":{"type":"Point","coordinates":[-1.5327361,54.9895984]}},{"type":"Feature","properties":{"name":"Hadrian Road","osmId":"4524045380","routeIds":["relation/8215232","relation/8215233"],"routeNames":["Yellow","Yellow"]},"geometry":{"type":"Point","coordinates":[-1.5159676,54.9922694]}},{"type":"Feature","properties":{"name":"Howdon","osmId":"4524046458","routeIds":["relation/8215232","relation/8215233"],"routeNames":["Yellow","Yellow"]},"geometry":{"type":"Point","coordinates":[-1.4941598,54.9959066]}},{"type":"Feature","properties":{"name":"Percy Main","osmId":"4524047091","routeIds":["relation/8215232","relation/8215233"],"routeNames":["Yellow","Yellow"]},"geometry":{"type":"Point","coordinates":[-1.4746255,54.9995678]}},{"type":"Feature","properties":{"name":"Meadow Well","osmId":"4524048559","routeIds":["relation/8215232","relation/8215233"],"routeNames":["Yellow","Yellow"]},"geometry":{"type":"Point","coordinates":[-1.4656759,55.001562]}},{"type":"Feature","properties":{"name":"Shiremoor","osmId":"4524060159","routeIds":["relation/8215232","relation/8215233"],"routeNames":["Yellow","Yellow"]},"geometry":{"type":"Point","coordinates":[-1.5054224,55.0369588]}},{"type":"Feature","properties":{"name":"Northumberland Park (Metro)","osmId":"4524061408","routeIds":["relation/8215232","relation/8215233","relation/18704841","relation/18737499"],"routeNames":["Yellow","Yellow","NR 01","NR 01"]},"geometry":{"type":"Point","coordinates":[-1.5195618,55.0332093]}},{"type":"Feature","properties":{"name":"Longbenton","osmId":"4524066897","routeIds":["relation/8215232","relation/8215233"],"routeNames":["Yellow","Yellow"]},"geometry":{"type":"Point","coordinates":[-1.5916006,55.0089239]}},{"type":"Feature","properties":{"name":"Palmersville","osmId":"4524643130","routeIds":["relation/8215232","relation/8215233"],"routeNames":["Yellow","Yellow"]},"geometry":{"type":"Point","coordinates":[-1.5411852,55.0236937]}},{"type":"Feature","properties":{"name":"Kingston Park","osmId":"4524822530","routeIds":["relation/172927","relation/8215203"],"routeNames":["Green","Green"]},"geometry":{"type":"Point","coordinates":[-1.6659171,55.0144242]}},{"type":"Feature","properties":{"name":"Blaydon","osmId":"5018402678","routeIds":["relation/2588073","relation/6485338","relation/6485339","relation/9794791","relation/9802087","relation/11233528","relation/11287755","relation/11287756","relation/11287757","relation/11287758","relation/11287759","relation/11287760","relation/11287859","relation/11287860","relation/11816890","relation/13074802"],"routeNames":["Newcastle and Carlisle Railway","NR 04","NR 04","NR 04","NR 04","NR 02","NR 02","NR 02","NR 02","NR 04","NR 04","NR 02","NR 04","NR 02","NR 01","NR 02"]},"geometry":{"type":"Point","coordinates":[-1.7128813,54.9659633]}},{"type":"Feature","properties":{"name":"Hexham","osmId":"5693024822","routeIds":["relation/6485338","relation/6485339","relation/7551026","relation/9794790","relation/9794791","relation/9802087","relation/11233528","relation/11287754","relation/11287755","relation/11287756","relation/11287757","relation/11287758","relation/11287759","relation/11287760","relation/11287858","relation/11287859","relation/11816890","relation/11817244","relation/11817628","relation/13074802","relation/13074805"],"routeNames":["NR 04","NR 04","NR 02","NR 04","NR 04","NR 04","NR 02","NR 04","NR 02","NR 02","NR 02","NR 04","NR 04","NR 02","NR 04","NR 04","NR 01","NR 01","NR 01","NR 02","NR 04"]},"geometry":{"type":"Point","coordinates":[-2.0947934,54.9735335]}},{"type":"Feature","properties":{"name":"Percy Main (North Tyneside Steam Railway)","osmId":"5995338521","routeIds":["relation/8215232","relation/8215233"],"routeNames":["Yellow","Yellow"]},"geometry":{"type":"Point","coordinates":[-1.4780978,54.9978108]}},{"type":"Feature","properties":{"name":"Witton-le-Wear","osmId":"6272187613","routeIds":[],"routeNames":[]},"geometry":{"type":"Point","coordinates":[-1.7666786,54.6763965]}},{"type":"Feature","properties":{"name":"Hartlepool","osmId":"6661375389","routeIds":["relation/7551026","relation/8112974","relation/8153775","relation/11227363","relation/11233461","relation/11233462","relation/11233528","relation/11233529","relation/11277941","relation/11287754","relation/11287755","relation/11287756","relation/11287757","relation/11287758","relation/11287760","relation/11287858","relation/11287859","relation/11287860","relation/13074802"],"routeNames":["NR 02","GC E","GC E","NR 03","NR 03","NR 02","NR 02","NR 02","NR 02","NR 04","NR 02","NR 02","NR 02","NR 04","NR 02","NR 04","NR 04","NR 02","NR 02"]},"geometry":{"type":"Point","coordinates":[-1.207832,54.6868261]}},{"type":"Feature","properties":{"name":"Pegswood","osmId":"6738885509","routeIds":["relation/11817244","relation/11817628"],"routeNames":["NR 01","NR 01"]},"geometry":{"type":"Point","coordinates":[-1.6437205,55.1783232]}},{"type":"Feature","properties":{"name":"Chester-le-Street","osmId":"7167787645","routeIds":["relation/6363085","relation/11233463"],"routeNames":["TP N","NR 04"]},"geometry":{"type":"Point","coordinates":[-1.5782541,54.8545355]}},{"type":"Feature","properties":{"name":"Durham","osmId":"7167810363","routeIds":["relation/6336333","relation/6336334","relation/6363082","relation/6363083","relation/6363085","relation/6396488","relation/6396489","relation/9818983","relation/9819721","relation/10919602","relation/10919605","relation/11142456","relation/11233463","relation/21116357","relation/21116358","relation/21118493","relation/21118494"],"routeNames":["GR C","GR D","GR C","GR D","TP N","EDB–PLY","PLY–EDB","NCL–RDG","RDG–NCL","GR C","GR C","GR C","NR 04","PLY–GLC","GLC–PLY","PLY–ABD","ABD–PLY"]},"geometry":{"type":"Point","coordinates":[-1.5815122,54.7797488]}},{"type":"Feature","properties":{"name":"Morpeth","osmId":"7209360087","routeIds":["relation/6357825","relation/6396488","relation/6396489","relation/11142462","relation/11816890","relation/11817244","relation/11817628","relation/20145227","relation/20149503","relation/20149507","relation/20149508","relation/20149509","relation/20149510","relation/20149511","relation/21116357","relation/21116358","relation/21118493","relation/21118494"],"routeNames":["TP N","EDB–PLY","PLY–EDB","GR C","NR 01","NR 01","NR 01","TP N","Lumo: Edinburgh Waverley => Newcastle","Lumo: London King's Cross => Edinburgh Waverley (weekday late nights)","Lumo: London King's Cross => Edinburgh Waverley","Lumo: Edinburgh Waverley => London King's Cross","Lumo: Glasgow Queen Street => London King's Cross","Lumo: London King's Cross => Glasgow Queen Street","PLY–GLC","GLC–PLY","PLY–ABD","ABD–PLY"]},"geometry":{"type":"Point","coordinates":[-1.6831484,55.1623623]}},{"type":"Feature","properties":{"name":"Whitley Bay","osmId":"7340953431","routeIds":["relation/8215232","relation/8215233"],"routeNames":["Yellow","Yellow"]},"geometry":{"type":"Point","coordinates":[-1.442273,55.0397265]}},{"type":"Feature","properties":{"name":"Tynemouth","osmId":"7340953432","routeIds":["relation/8215232","relation/8215233"],"routeNames":["Yellow","Yellow"]},"geometry":{"type":"Point","coordinates":[-1.4288662,55.0170464]}},{"type":"Feature","properties":{"name":"Chichester","osmId":"7340963887","routeIds":["relation/8215232","relation/8215233"],"routeNames":["Yellow","Yellow"]},"geometry":{"type":"Point","coordinates":[-1.4320475,54.9866761]}},{"type":"Feature","properties":{"name":"Cullercoats","osmId":"7340970616","routeIds":["relation/8215232","relation/8215233"],"routeNames":["Yellow","Yellow"]},"geometry":{"type":"Point","coordinates":[-1.4363669,55.034999]}},{"type":"Feature","properties":{"name":"Monkseaton","osmId":"7341001686","routeIds":["relation/8215232","relation/8215233"],"routeNames":["Yellow","Yellow"]},"geometry":{"type":"Point","coordinates":[-1.4584698,55.042298]}},{"type":"Feature","properties":{"name":"West Monkseaton","osmId":"7350601732","routeIds":["relation/8215232","relation/8215233"],"routeNames":["Yellow","Yellow"]},"geometry":{"type":"Point","coordinates":[-1.4759796,55.0405469]}},{"type":"Feature","properties":{"name":"North Shields","osmId":"7350643561","routeIds":["relation/8215232","relation/8215233"],"routeNames":["Yellow","Yellow"]},"geometry":{"type":"Point","coordinates":[-1.4489628,55.0081382]}},{"type":"Feature","properties":{"name":"South Shields","osmId":"7350826844","routeIds":["relation/8215232","relation/8215233"],"routeNames":["Yellow","Yellow"]},"geometry":{"type":"Point","coordinates":[-1.4329872,54.9973681]}},{"type":"Feature","properties":{"name":"Tyne Dock","osmId":"7350858172","routeIds":["relation/8215232","relation/8215233"],"routeNames":["Yellow","Yellow"]},"geometry":{"type":"Point","coordinates":[-1.4416187,54.9761432]}},{"type":"Feature","properties":{"name":"Simonside","osmId":"7350870529","routeIds":["relation/8215232","relation/8215233"],"routeNames":["Yellow","Yellow"]},"geometry":{"type":"Point","coordinates":[-1.4554849,54.971707]}},{"type":"Feature","properties":{"name":"Horden","osmId":"7455014396","routeIds":["relation/11287754","relation/11287756","relation/13074802"],"routeNames":["NR 04","NR 02","NR 02"]},"geometry":{"type":"Point","coordinates":[-1.3071992,54.7637874]}},{"type":"Feature","properties":{"name":"Cramlington","osmId":"8068832751","routeIds":["relation/11816890","relation/11817244","relation/11817628"],"routeNames":["NR 01","NR 01","NR 01"]},"geometry":{"type":"Point","coordinates":[-1.5986832,55.0877627]}},{"type":"Feature","properties":{"name":"Kingfisher Halt","osmId":"8676887194","routeIds":[],"routeNames":[]},"geometry":{"type":"Point","coordinates":[-1.9243093,54.7260089]}},{"type":"Feature","properties":{"name":"Middle Engine Lane","osmId":"11816879913","routeIds":[],"routeNames":[]},"geometry":{"type":"Point","coordinates":[-1.4958574,55.0154743]}},{"type":"Feature","properties":{"name":"Newsham","osmId":"12383144343","routeIds":["relation/18704841","relation/18737499"],"routeNames":["NR 01","NR 01"]},"geometry":{"type":"Point","coordinates":[-1.5239825,55.1027544]}},{"type":"Feature","properties":{"name":"Ashington","osmId":"12424571567","routeIds":["relation/18704841","relation/18737499"],"routeNames":["NR 01","NR 01"]},"geometry":{"type":"Point","coordinates":[-1.5725975,55.1821205]}},{"type":"Feature","properties":{"name":"Bedlington","osmId":"12487450707","routeIds":["relation/18704841","relation/18737499"],"routeNames":["NR 01","NR 01"]},"geometry":{"type":"Point","coordinates":[-1.5694154,55.1407578]}},{"type":"Feature","properties":{"name":"Blyth Bebside","osmId":"12487500809","routeIds":["relation/18704841","relation/18737499"],"routeNames":["NR 01","NR 01"]},"geometry":{"type":"Point","coordinates":[-1.557111,55.1250993]}},{"type":"Feature","properties":{"name":"Northumberland Park","osmId":"12517647184","routeIds":["relation/8215232","relation/8215233"],"routeNames":["Yellow","Yellow"]},"geometry":{"type":"Point","coordinates":[-1.5206008,55.0329143]}}]}
